NORAD_CAT_ID,OBJECT_NAME,OBJECT_TYPE,EPOCH,MEAN_MOTION,ECCENTRICITY,INCLINATION,RA_OF_ASC_NODE,ARG_OF_PERICENTER,MEAN_ANOMALY,BSTAR,MEAN_MOTION_DOT,MEAN_MOTION_DDOT,TLE_LINE0,TLE_LINE1,TLE_LINE2,SEMIMAJOR_AXIS,PERIOD,APOGEE,PERIGEE,DECAYED
52270.0,STARLINK-3804,PAYLOAD,2022-12-23 23:06:26,15.08837425,0.0001638,53.2177,329.2167,56.5005,303.6144,0.00019903,2.881e-05,0.0,0 STARLINK-3804,1 52270U 22041K   22357.96281028  .00002881  00000-0  19903-3 0  9994,2 52270  53.2177 329.2167 0001638  56.5005 303.6144 15.08837425 38681,6917.888000000001,95.438,540.886,538.62,0.0
52270.0,STARLINK-3804,PAYLOAD,2022-12-24 07:03:21,15.08848542,0.0001622,53.218,327.7302,57.1723,302.9425,0.00020369,2.956e-05,0.0,0 STARLINK-3804,1 52270U 22041K   22358.29400396  .00002956  00000-0  20369-3 0  9993,2 52270  53.2180 327.7302 0001622  57.1723 302.9425 15.08848542 38738,6917.854,95.437,540.841,538.597,0.0
52270.0,STARLINK-3804,PAYLOAD,2022-12-24 15:00:17,15.08844219,0.0001638,53.2173,326.2432,58.0827,302.0325,0.00014464,2.015e-05,0.0,0 STARLINK-3804,1 52270U 22041K   22358.62520785  .00002015  00000-0  14464-3 0  9990,2 52270  53.2173 326.2432 0001638  58.0827 302.0325 15.08844219 38782,6917.8669999999975,95.437,540.866,538.599,0.0
52270.0,STARLINK-3804,PAYLOAD,2022-12-25 02:08:00,15.08836465,0.0001629,53.2174,324.1616,60.0883,300.0271,0.00015501,2.18e-05,0.0,0 STARLINK-3804,1 52270U 22041K   22359.08889338  .00002180  00000-0  15501-3 0  9999,2 52270  53.2174 324.1616 0001629  60.0883 300.0271 15.08836465 38859,6917.891,95.438,540.883,538.629,0.0
52270.0,STARLINK-3804,PAYLOAD,2022-12-25 10:04:56,15.08831771,0.0001626999999999,53.2173,322.6748,58.3021,301.8129,8.201299999999999e-05,1.017e-05,0.0,0 STARLINK-3804,1 52270U 22041K   22359.42009907  .00001017  00000-0  82013-4 0  9994,2 52270  53.2173 322.6748 0001627  58.3021 301.8129 15.08831771 38901,6917.906,95.438,540.896,538.645,0.0
52270.0,STARLINK-3804,PAYLOAD,2022-12-25 14:51:05,15.08836654,0.0001625,53.2175,321.7831,59.0333,301.0819,4.033e-05,3.54e-06,0.0,0 STARLINK-3804,1 52270U 22041K   22359.61881676  .00000354  00000-0  40330-4 0  9995,2 52270  53.2175 321.7831 0001625  59.0333 301.0819 15.08836654 37720,6917.891,95.438,540.88,538.631,0.0
52270.0,STARLINK-3804,PAYLOAD,2022-12-26 09:55:43,15.08843269,0.0001679,53.2177,318.2145,58.703,301.4126,-6.652100000000001e-05,-1.347e-05,0.0,0 STARLINK-3804,1 52270U 22041K   22360.41369613 -.00001347  00000-0 -66521-4 0  9992,2 52270  53.2177 318.2145 0001679  58.7030 301.4126 15.08843269 39053,6917.87,95.437,540.8969999999998,538.5740000000002,0.0
52270.0,STARLINK-3804,PAYLOAD,2022-12-27 06:35:43,15.08848909,0.0001622,53.2178,314.3479,60.9371,299.1783,8.873899999999999e-05,1.125e-05,0.0,0 STARLINK-3804,1 52270U 22041K   22361.27480724  .00001125  00000-0  88739-4 0  9991,2 52270  53.2178 314.3479 0001622  60.9371 299.1783 15.08848909 39184,6917.853,95.437,540.84,538.596,0.0
52270.0,STARLINK-3804,PAYLOAD,2022-12-27 22:29:33,15.08855045,0.0001646,53.2177,311.3738,59.774,300.3415,0.00025274,3.738e-05,0.0,0 STARLINK-3804,1 52270U 22041K   22361.93719624  .00003738  00000-0  25274-3 0  9994,2 52270  53.2177 311.3738 0001646  59.7740 300.3415 15.08855045 39287,6917.834,95.437,540.8380000000002,538.561,0.0
52270.0,STARLINK-3804,PAYLOAD,2022-12-28 00:04:56,15.0885476,0.0001653,53.2176,311.0766,59.9186,300.197,0.00025083,3.708e-05,0.0,0 STARLINK-3804,1 52270U 22041K   22362.00343644  .00003708  00000-0  25083-3 0  9993,2 52270  53.2176 311.0766 0001653  59.9186 300.1970 15.08854760 38082,6917.835,95.437,540.844,538.557,0.0
52270.0,STARLINK-3804,PAYLOAD,2022-12-28 23:55:44,15.08842484,0.0001579,53.2165,306.617,66.8906,293.2252,-3.8078e-05,-8.94e-06,0.0,0 STARLINK-3804,1 52270U 22041K   22362.99704612 -.00000894  00000-0 -38078-4 0  9991,2 52270  53.2165 306.6170 0001579  66.8906 293.2252 15.08842484 39449,6917.873000000001,95.437,540.83,538.645,0.0
52270.0,STARLINK-3804,PAYLOAD,2022-12-29 20:35:47,15.08819637,0.0001672,53.2155,302.7497,71.9026,288.2148,-0.00038915,-6.473e-05,0.0,0 STARLINK-3804,1 52270U 22041K   22363.85818336 -.00006473  00000-0 -38915-3 0  9994,2 52270  53.2155 302.7497 0001672  71.9026 288.2148 15.08819637 39577,6917.943,95.439,540.964,538.651,0.0
52270.0,STARLINK-3804,PAYLOAD,2022-12-30 02:57:19,15.08839304,0.0001574,53.2178,301.562,56.5775,303.5368,-3.6696e-05,-8.72e-06,0.0,0 STARLINK-3804,1 52270U 22041K   22364.12313787 -.00000872  00000-0 -36696-4 0  9997,2 52270  53.2178 301.5620 0001574  56.5775 303.5368 15.08839304 39611,6917.8830000000025,95.438,540.836,538.659,0.0
52270.0,STARLINK-3804,PAYLOAD,2022-12-30 07:43:28,15.08845965,0.0001526,53.217,300.6698,55.9977,304.1159,0.00018367,2.637e-05,0.0,0 STARLINK-3804,1 52270U 22041K   22364.32185335  .00002637  00000-0  18367-3 0  9998,2 52270  53.2170 300.6698 0001526  55.9977 304.1159 15.08845965 39640,6917.861999999999,95.437,540.783,538.6709999999998,0.0
52270.0,STARLINK-3804,PAYLOAD,2022-12-31 04:23:28,15.08881136,0.0001556,53.2168,296.8053,55.4193,304.6946,0.0011447,0.00017997,0.0,0 STARLINK-3804,1 52270U 22041K   22365.18296729  .00017997  00000-0  11447-2 0  9999,2 52270  53.2168 296.8053 0001556  55.4193 304.6946 15.08881136 39779,6917.755,95.435,540.696,538.543,0.0
52270.0,STARLINK-3804,PAYLOAD,2022-12-31 12:20:23,15.08876497,0.0001605,53.2165,295.3177,53.8041,306.31,0.00087915,0.00013745,0.0,0 STARLINK-3804,1 52270U 22041K   22365.51416196  .00013745  00000-0  87915-3 0  9999,2 52270  53.2165 295.3177 0001605  53.8041 306.3100 15.08876497 39827,6917.769,95.435,540.744,538.524,0.0
52270.0,STARLINK-3804,PAYLOAD,2023-01-01 04:14:14,15.08844674,0.0001453999999999,53.216,292.3428,51.4042,308.708,-0.00019277,-3.355e-05,0.0,0 STARLINK-3804,1 52270U 22041K   23001.17656105 -.00003355  00000-0 -19277-3 0  9999,2 52270  53.2160 292.3428 0001454  51.4042 308.7080 15.08844674 39921,6917.866,95.437,540.737,538.725,0.0
52270.0,STARLINK-3804,PAYLOAD,2023-01-01 07:25:01,15.08844608,0.0001568,53.216,291.7487,52.4515,307.6619,-3.3881e-05,-8.27e-06,0.0,0 STARLINK-3804,1 52270U 22041K   23001.30904170 -.00000827  00000-0 -33881-4 0  9991,2 52270  53.2160 291.7487 0001568  52.4515 307.6619 15.08844608 38732,6917.866,95.437,540.816,538.6469999999998,0.0
52270.0,STARLINK-3804,PAYLOAD,2023-01-01 18:32:44,15.08820344,0.0001626999999999,53.216,289.6668,54.5992,305.5152,-0.00012175,-2.224e-05,0.0,0 STARLINK-3804,1 52270U 22041K   23001.77273219 -.00002224  00000-0 -12175-3 0  9990,2 52270  53.2160 289.6668 0001627  54.5992 305.5152 15.08820344 38805,6917.94,95.439,540.931,538.68,0.0
52270.0,STARLINK-3804,PAYLOAD,2023-01-01 23:18:53,15.08826998,0.0001557,53.2159,288.7746,57.603,302.5113,-0.00032908,-5.520000000000003e-05,0.0,0 STARLINK-3804,1 52270U 22041K   23001.97145440 -.00005520  00000-0 -32908-3 0  9994,2 52270  53.2159 288.7746 0001557  57.6030 302.5113 15.08826998 40043,6917.92,95.438,540.862,538.7080000000002,0.0
52270.0,STARLINK-3804,PAYLOAD,2023-01-02 12:01:58,15.08836721,0.0001565999999999,53.2167,286.3962,56.2969,303.8172,-7.1377e-05,-1.424e-05,0.0,0 STARLINK-3804,1 52270U 22041K   23002.50137596 -.00001424  00000-0 -71377-4 0  9990,2 52270  53.2167 286.3962 0001566  56.2969 303.8172 15.08836721 40125,6917.89,95.438,540.839,538.672,0.0
52270.0,STARLINK-3804,PAYLOAD,2023-01-03 11:52:45,15.0884258,0.0001693,53.2174,281.9361,56.4615,303.6538,0.00018393,2.641e-05,0.0,0 STARLINK-3804,1 52270U 22041K   23003.49497671  .00002641  00000-0  18393-3 0  9990,2 52270  53.2174 281.9361 0001693  56.4615 303.6538 15.08842580 39063,6917.873000000001,95.437,540.909,538.566,0.0
52270.0,STARLINK-3804,PAYLOAD,2023-01-03 18:14:19,15.08832424,0.0001587,53.2162,280.7461,59.7125,300.4024,0.00022472,3.2899999999999987e-05,0.0,0 STARLINK-3804,1 52270U 22041K   23003.75994754  .00003290  00000-0  22472-3 0  9997,2 52270  53.2162 280.7461 0001587  59.7125 300.4024 15.08832424 40313,6917.904,95.438,540.866,538.6709999999998,0.0
52270.0,STARLINK-3804,PAYLOAD,2023-01-04 11:43:33,15.08847141,0.0001549,53.2162,277.4749,60.71100000000001,299.4037,0.00027187,4.042e-05,0.0,0 STARLINK-3804,1 52270U 22041K   23004.48858093  .00004042  00000-0  27187-3 0  9997,2 52270  53.2162 277.4749 0001549  60.7110 299.4037 15.08847141 40424,6917.859,95.437,540.795,538.6519999999998,0.0
52270.0,STARLINK-3804,PAYLOAD,2023-01-05 03:37:23,15.08861784,0.0001655,53.2162,274.5015,60.7148,299.4009,0.00035164,5.316e-05,0.0,0 STARLINK-3804,1 52270U 22041K   23005.15096985  .00005316  00000-0  35164-3 0  9995,2 52270  53.2162 274.5015 0001655  60.7148 299.4009 15.08861784 40526,6917.814,95.436,540.8240000000002,538.534,0.0
52270.0,STARLINK-3804,PAYLOAD,2023-01-05 13:09:42,15.08865971,0.0001808,53.216,272.7186,51.819,308.2965,0.00034147,5.154e-05,0.0,0 STARLINK-3804,1 52270U 22041K   23005.54840435  .00005154  00000-0  34147-3 0  9995,2 52270  53.2160 272.7186 0001808  51.8190 308.2965 15.08865971 39374,6917.801,95.436,540.9169999999998,538.415,0.0
52270.0,STARLINK-3804,PAYLOAD,2023-01-05 17:55:51,15.0886027,0.0001824,53.2164,271.8277,52.3774,307.7383,0.0002521,3.729e-05,0.0,0 STARLINK-3804,1 52270U 22041K   23005.74712378  .00003729  00000-0  25210-3 0  9998,2 52270  53.2164 271.8277 0001824  52.3774 307.7383 15.08860270 39400,6917.818,95.436,540.945,538.422,0.0
52270.0,STARLINK-3804,PAYLOAD,2023-01-06 17:46:39,15.08828272,0.000167,53.2158,267.3664,50.8809,309.2332,-0.00035044,-5.859e-05,0.0,0 STARLINK-3804,1 52270U 22041K   23006.74073432 -.00005859  00000-0 -35044-3 0  9994,2 52270  53.2158 267.3664 0001670  50.8809 309.2332 15.08828272 40762,6917.916,95.438,540.937,538.626,0.0
52270.0,STARLINK-3804,PAYLOAD,2023-01-06 20:57:25,15.08829999,0.0001717,53.2152,266.771,54.1581,305.957,-0.00026416,-4.489e-05,0.0,0 STARLINK-3804,1 52270U 22041K   23006.87321456 -.00004489  00000-0 -26416-3 0  9991,2 52270  53.2152 266.7710 0001717  54.1581 305.9570 15.08829999 39578,6917.911,95.438,540.964,538.5880000000002,0.0
